ASNARO-2                
1 43152U 18007A   26067.75441303  .00013989  00000+0  60725-3 0  9991
2 43152  97.4030  76.2222 0002085  88.5161 271.6314 15.22434719452132
YAOGAN-43 03C           
1 61619U 24190C   26068.54836044  .00000578  00000+0  25482-4 0  9999
2 61619  34.9956 104.7228 0006036 169.7730 190.3109 15.23076374 76625
